NORAD_CAT_ID,OBJECT_NAME,OBJECT_TYPE,EPOCH,MEAN_MOTION,ECCENTRICITY,INCLINATION,RA_OF_ASC_NODE,ARG_OF_PERICENTER,MEAN_ANOMALY,BSTAR,MEAN_MOTION_DOT,MEAN_MOTION_DDOT,TLE_LINE0,TLE_LINE1,TLE_LINE2,SEMIMAJOR_AXIS,PERIOD,APOGEE,PERIGEE,DECAYED
55435.0,STARLINK-5626,PAYLOAD,2023-06-16 06:10:29,14.98339843,0.0003047,69.9992,99.3128,268.3999,91.6811,8.9419e-05,9.74e-06,0.0,0 STARLINK-5626,1 55435U 23014AW  23167.25729159  .00000974  00000-0  89419-4 0  9996,2 55435  69.9992  99.3128 0003047 268.3999  91.6811 14.98339843 20729,6950.162,96.106,574.145,569.91,0.0
55435.0,STARLINK-5626,PAYLOAD,2023-06-16 12:35:01,14.98353898,0.0003166,69.9993,98.64,272.6908,87.3889,-0.00023382,-2.884e-05,0.0,0 STARLINK-5626,1 55435U 23014AW  23167.52432858 -.00002884  00000-0 -23382-3 0  9993,2 55435  69.9993  98.6400 0003166 272.6908  87.3889 14.98353898 21707,6950.119,96.105,574.184,569.784,0.0
55435.0,STARLINK-5626,PAYLOAD,2023-06-17 01:24:06,14.98333121,0.000297,69.9993,97.2938,271.7846,88.2973,8.1622e-05,8.81e-06,0.0,0 STARLINK-5626,1 55435U 23014AW  23168.05841426  .00000881  00000-0  81622-4 0  9992,2 55435  69.9993  97.2938 0002970 271.7846  88.2973 14.98333121 20846,6950.183,96.107,574.112,569.984,0.0
55435.0,STARLINK-5626,PAYLOAD,2023-06-17 12:37:04,14.98324064,0.0002556,69.9993,96.1135,270.7826,89.304,-7.2493e-05,-9.58e-06,0.0,0 STARLINK-5626,1 55435U 23014AW  23168.52574460 -.00000958  00000-0 -72493-4 0  9998,2 55435  69.9993  96.1135 0002556 270.7826  89.3040 14.98324064 21855,6950.211,96.107,573.853,570.3,0.0
55435.0,STARLINK-5626,PAYLOAD,2023-06-18 12:39:05,14.98329911,0.0003027,69.9997,93.5897,271.0711,89.0102,-8.8185e-05,-1.145e-05,0.0,0 STARLINK-5626,1 55435U 23014AW  23169.52714232 -.00001145  00000-0 -88185-4 0  9996,2 55435  69.9997  93.5897 0003027 271.0711  89.0102 14.98329911 22006,6950.193,96.107,574.162,569.954,0.0
55435.0,STARLINK-5626,PAYLOAD,2023-06-18 19:03:37,14.98330945,0.0003172,69.9992,92.9163,271.4119,88.6677,3.0033e-06,-5.7e-07,0.0,0 STARLINK-5626,1 55435U 23014AW  23169.79417845 -.00000057  00000-0  30033-5 0  9995,2 55435  69.9992  92.9163 0003172 271.4119  88.6677 14.98330945 21108,6950.19,96.107,574.26,569.85,0.0
55435.0,STARLINK-5626,PAYLOAD,2023-06-19 12:41:05,14.9833792,0.0003178,69.9992,91.065,270.2252,89.8543,6.3719e-06,-1.7e-07,0.0,0 STARLINK-5626,1 55435U 23014AW  23170.52853191 -.00000017  00000-0  63719-5 0  9999,2 55435  69.9992  91.0650 0003178 270.2252  89.8543 14.98337920 22151,6950.168,96.106,574.242,569.825,0.0
55435.0,STARLINK-5626,PAYLOAD,2023-06-20 01:30:10,14.98323746,0.0003091,69.9998,89.718,268.6578,91.4227,0.00013614,1.531e-05,0.0,0 STARLINK-5626,1 55435U 23014AW  23171.06261845  .00001531  00000-0  13614-3 0  9996,2 55435  69.9998  89.7180 0003091 268.6578  91.4227 14.98323746 21298,6950.212,96.107,574.226,569.929,0.0
55435.0,STARLINK-5626,PAYLOAD,2023-06-20 04:42:26,14.98322127,0.0003057,69.9999,89.3813,269.3252,90.7557,0.00019289,2.209e-05,0.0,0 STARLINK-5626,1 55435U 23014AW  23171.19613841  .00002209  00000-0  19289-3 0  9994,2 55435  69.9999  89.3813 0003057 269.3252  90.7557 14.98322127 22254,6950.217,96.108,574.207,569.958,0.0
55435.0,STARLINK-5626,PAYLOAD,2023-06-20 20:43:46,14.98333781,0.0002996,70.0001,87.6986,269.5043,90.5772,-2.356e-05,-3.74e-06,0.0,0 STARLINK-5626,1 55435U 23014AW  23171.86373655 -.00000374  00000-0 -23560-4 0  9995,2 55435  70.0001  87.6986 0002996 269.5043  90.5772 14.98333781 22350,6950.181,96.107,574.128,569.964,0.0
55435.0,STARLINK-5626,PAYLOAD,2023-06-21 01:32:10,14.98337396,0.0003081,69.9994,87.1934,267.9586,92.122,1.0571e-05,3.3e-07,0.0,0 STARLINK-5626,1 55435U 23014AW  23172.06401241  .00000033  00000-0  10571-4 0  9999,2 55435  69.9994  87.1934 0003081 267.9586  92.1220 14.98337396 21447,6950.17,96.107,574.176,569.894,0.0
55435.0,STARLINK-5626,PAYLOAD,2023-06-21 11:08:59,14.98331588,0.0003067,69.9999,86.1839,267.9454,92.1354,-7.6976e-05,-1.011e-05,0.0,0 STARLINK-5626,1 55435U 23014AW  23172.46457681 -.00001011  00000-0 -76976-4 0  9992,2 55435  69.9999  86.1839 0003067 267.9454  92.1354 14.98331588 21505,6950.188,96.107,574.185,569.921,0.0
55435.0,STARLINK-5626,PAYLOAD,2023-06-21 19:09:39,14.98328198,0.0002946,69.9997,85.3421,267.0062,93.076,-5.7394e-05,-7.78e-06,0.0,0 STARLINK-5626,1 55435U 23014AW  23172.79837888 -.00000778  00000-0 -57394-4 0  9991,2 55435  69.9997  85.3421 0002946 267.0062  93.0760 14.98328198 22495,6950.198,96.107,574.111,570.016,0.0
55435.0,STARLINK-5626,PAYLOAD,2023-06-22 19:11:40,14.9833159,0.0002967,69.9998,82.8171,269.8307,90.2512,1.4233e-05,7.7e-07,0.0,0 STARLINK-5626,1 55435U 23014AW  23173.79977472  .00000077  00000-0  14233-4 0  9991,2 55435  69.9998  82.8171 0002967 269.8307  90.2512 14.98331590 21702,6950.188,96.107,574.115,569.991,0.0
55435.0,STARLINK-5626,PAYLOAD,2023-06-24 01:38:14,14.98322244,0.0003126,69.9997,79.6186,267.8275,92.2526,6.7335e-05,7.1e-06,0.0,0 STARLINK-5626,1 55435U 23014AW  23175.06821882  .00000710  00000-0  67335-4 0  9991,2 55435  69.9997  79.6186 0003126 267.8275  92.2526 14.98322244 21894,6950.217,96.107,574.255,569.909,0.0
55435.0,STARLINK-5626,PAYLOAD,2023-06-25 03:16:22,14.98335997,0.000318,69.9998,76.9263,270.0984,89.981,4.7804e-05,4.77e-06,0.0,0 STARLINK-5626,1 55435U 23014AW  23176.13637097  .00000477  00000-0  47804-4 0  9992,2 55435  69.9998  76.9263 0003180 270.0984  89.9810 14.98335997 22051,6950.174,96.107,574.25,569.829,0.0
55435.0,STARLINK-5626,PAYLOAD,2023-06-26 01:42:15,14.98329304,0.0003205,69.9998,74.5694,269.0788,91.0004,9.0508e-05,9.87e-06,0.0,0 STARLINK-5626,1 55435U 23014AW  23177.07101293  .00000987  00000-0  90508-4 0  9995,2 55435  69.9998  74.5694 0003205 269.0788  91.0004 14.98329304 22190,6950.195,96.107,574.288,569.833,0.0
55435.0,STARLINK-5626,PAYLOAD,2023-06-26 20:55:52,14.98326303,0.0003095,70.0004,72.5495,270.5641,89.5163,-3.0275e-05,-4.54e-06,0.0,0 STARLINK-5626,1 55435U 23014AW  23177.87213867 -.00000454  00000-0 -30275-4 0  9990,2 55435  70.0004  72.5495 0003095 270.5641  89.5163 14.98326303 22318,6950.204,96.107,574.22,569.918,0.0
55435.0,STARLINK-5626,PAYLOAD,2023-06-27 20:57:53,14.98330265,0.0002997,70.0003,70.0243,271.1888,88.8928,1.2851e-06,-7.8e-07,0.0,0 STARLINK-5626,1 55435U 23014AW  23178.87353532 -.00000078  00000-0  12851-5 0  9997,2 55435  70.0003  70.0243 0002997 271.1888  88.8928 14.98330265 22460,6950.192,96.107,574.14,569.974,0.0
55435.0,STARLINK-5626,PAYLOAD,2023-06-29 01:48:18,14.98330432,0.0003029,69.9999,66.9946,267.1644,92.9169,4.1739e-05,4.05e-06,0.0,0 STARLINK-5626,1 55435U 23014AW  23180.07521361  .00000405  00000-0  41739-4 0  9998,2 55435  69.9999  66.9946 0003029 267.1644  92.9169 14.98330432 22646,6950.192,96.107,574.162,569.951,0.0
55435.0,STARLINK-5626,PAYLOAD,2023-07-01 01:52:20,14.98330817,0.0003154,69.9997,61.9448,270.0872,89.9926,1.0652e-05,3.4e-07,0.0,0 STARLINK-5626,1 55435U 23014AW  23182.07801490  .00000034  00000-0  10652-4 0  9992,2 55435  69.9997  61.9448 0003154 270.0872  89.9926 14.98330817 22948,6950.19,96.107,574.247,569.863,0.0
55435.0,STARLINK-5626,PAYLOAD,2023-07-02 01:54:21,14.98331853,0.0003053,69.9998,59.4193,269.5504,90.5305,4.8622e-05,4.87e-06,0.0,0 STARLINK-5626,1 55435U 23014AW  23183.07941265  .00000487  00000-0  48622-4 0  9998,2 55435  69.9998  59.4193 0003053 269.5504  90.5305 14.98331853 23098,6950.187,96.107,574.174,569.93,0.0
55435.0,STARLINK-5626,PAYLOAD,2023-07-03 01:56:22,14.98333214,0.0003052,69.9998,56.8945,269.5982,90.4827,3.0742e-05,2.74e-06,0.0,0 STARLINK-5626,1 55435U 23014AW  23184.08081157  .00000274  00000-0  30742-4 0  9993,2 55435  69.9998  56.8945 0003052 269.5982  90.4827 14.98333214 23241,6950.183,96.107,574.169,569.927,0.0
55435.0,STARLINK-5626,PAYLOAD,2023-07-04 01:58:22,14.98333424,0.0002997,69.9998,54.3697,268.8857,91.1959,1.6424e-05,1.03e-06,0.0,0 STARLINK-5626,1 55435U 23014AW  23185.08221011  .00000103  00000-0  16424-4 0  9991,2 55435  69.9998  54.3697 0002997 268.8857  91.1959 14.98333424 23391,6950.182,96.107,574.13,569.964,0.0
55435.0,STARLINK-5626,PAYLOAD,2023-07-05 08:24:56,14.98328397,0.0002986,69.9998,51.1712,271.0898,88.9919,-3.2143e-05,-4.76e-06,0.0,0 STARLINK-5626,1 55435U 23014AW  23186.35065354 -.00000476  00000-0 -32143-4 0  9999,2 55435  69.9998  51.1712 0002986 271.0898  88.9919 14.98328397 23587,6950.198,96.107,574.138,569.988,0.0
55435.0,STARLINK-5626,PAYLOAD,2023-07-06 08:26:57,14.98330015,0.0003025,70.0,48.6461,270.6456,89.4356,-1.7846e-05,-3.06e-06,0.0,0 STARLINK-5626,1 55435U 23014AW  23187.35205232 -.00000306  00000-0 -17846-4 0  9996,2 55435  70.0000  48.6461 0003025 270.6456  89.4356 14.98330015 23734,6950.193,96.107,574.16,569.955,0.0
55435.0,STARLINK-5626,PAYLOAD,2023-07-07 18:05:46,14.98328546,0.0003147,69.9997,45.1109,269.6879,90.3919,3.0067e-05,2.66e-06,0.0,0 STARLINK-5626,1 55435U 23014AW  23188.75401063  .00000266  00000-0  30067-4 0  9994,2 55435  69.9997  45.1109 0003147 269.6879  90.3919 14.98328546 23944,6950.197,96.107,574.25,569.875,0.0
55435.0,STARLINK-5626,PAYLOAD,2023-07-08 21:20:03,14.98333689,0.000319,69.9993,42.2492,270.2014,89.878,4.0167e-06,-4.5e-07,0.0,0 STARLINK-5626,1 55435U 23014AW  23189.88892690 -.00000045  00000-0  40167-5 0  9998,2 55435  69.9993  42.2492 0003190 270.2014  89.8780 14.98333689 24113,6950.181,96.107,574.264,569.829,0.0
55435.0,STARLINK-5626,PAYLOAD,2023-07-09 18:09:48,14.983268,0.0003144,69.9996,40.0606,272.42,87.6599,-3.6677e-05,-5.31e-06,0.0,0 STARLINK-5626,1 55435U 23014AW  23190.75681200 -.00000531  00000-0 -36677-4 0  9990,2 55435  69.9996  40.0606 0003144 272.4200  87.6599 14.98326800 24244,6950.203,96.107,574.253,569.883,0.0
55435.0,STARLINK-5626,PAYLOAD,2023-07-10 19:47:57,14.98332988,0.0003182,69.9995,37.3674,270.9901,89.0894,1.8008e-05,1.22e-06,0.0,0 STARLINK-5626,1 55435U 23014AW  23191.82496607  .00000122  00000-0  18008-4 0  9996,2 55435  69.9995  37.3674 0003182 270.9901  89.0894 14.98332988 24406,6950.184,96.107,574.26,569.837,0.0
